GLOBALSTAR M035         
1 25851U 99037A   25018.35758493 -.00000107  00000+0 -16411-2 0  9993
2 25851  51.9976  29.0991 0013783  99.8859   5.0845 11.04535415 79704
GLOBALSTAR M032         
1 25852U 99037B   25018.89356426 -.00000058  00000+0  28582-3 0  9990
2 25852  51.9911 223.4017 0009906 279.3413  80.6267 11.19055715118073
GLOBALSTAR M051         
1 25853U 99037C   25018.75801064 -.00000058  00000+0  34306-3 0  9990
2 25853  51.9812  41.3714 0000723 290.7732  69.3001 11.42200356115317
GLOBALSTAR M030         
1 25854U 99037D   25018.81149852 -.00000076  00000+0 -29433-4 0  9995
2 25854  51.9838 216.8468 0004506 128.7917 231.3303 11.55103662132781
GLOBALSTAR M048         
1 25872U 99041A   25018.86040678 -.00000048  00000+0  59770-3 0  9995
2 25872  51.9401 330.3865 0013098 288.3005 110.7627 11.33853440108040
GLOBALSTAR M026         
1 25873U 99041B   25018.69642174 -.00000078  00000+0 -52212-3 0  9994
2 25873  51.9990 147.8741 0001573  46.7831  61.6403 11.06825220131931
GLOBALSTAR M043         
1 25874U 99041C   25018.84968506 -.00000028  00000+0  11948-2 0  9996
2 25874  51.9412  72.1041 0013285  60.5935 114.3795 11.25690520106055
GLOBALSTAR M028         
1 25875U 99041D   25018.85446119 -.00000046  00000+0  35382-3 0  9998
2 25875  51.9623 278.3494 0063921 106.6017 254.1876 12.50575039171496
